{"type": "FeatureCollection", "features": [ {"type": "Feature", "properties": {"norad_id": 66584, "name": "STARLINK-35939", "group": "last-30-days", "lat": -38.52246167424792, "lon": -83.72387557195138, "alt_km": 435.49500270585213, "timestamp": "2025-12-26T23:26:40.919085+00:00", "meta": {"OBJECT_NAME": "STARLINK-35939", "OBJECT_ID": "2025-268AD", "EPOCH": "2025-12-26T18:00:02.998944", "MEAN_MOTION": 15.45420041, "ECCENTRICITY": 0.0001531, "INCLINATION": 43.0009, "RA_OF_ASC_NODE": 38.9129, "ARG_OF_PERICENTER": 283.358, "MEAN_ANOMALY": 139.5764, "EPHEMERIS_TYPE": 0, "CLASSIFICATION_TYPE": "U", "NORAD_CAT_ID": 66584, "ELEMENT_SET_NO": 999, "REV_AT_EPOCH": 609, "BSTAR": -0.047381, "MEAN_MOTION_DOT": -0.02062283, "MEAN_MOTION_DDOT": 0}, "tle": {"line1": "1 66584U 25268AD  25360.75003471 -.02062283  00000+0 -47381-1 0  9993", "line2": "2 66584  43.0009  38.9129 0001531 283.3580 139.5764 15.45420041  6094"}}, "geometry": {"type": "Point", "coordinates": [-83.72387557195138, -38.52246167424792]}}, {"type": "Feature", "properties": {"norad_id": 66585, "name": "STARLINK-35963", "group": "last-30-days", "lat": 31.372819642076262, "lon": 78.94328456170548, "alt_km": 467.9867580472401, "timestamp": "2025-12-26T23:26:40.919096+00:00", "meta": {"OBJECT_NAME": "STARLINK-35963", "OBJECT_ID": "2025-268AE", "EPOCH": "2025-12-26T18:00:02.998944", "MEAN_MOTION": 15.3213182, "ECCENTRICITY": 0.0001137, "INCLINATION": 43.0006, "RA_OF_ASC_NODE": 39.3643, "ARG_OF_PERICENTER": 274.5647, "MEAN_ANOMALY": 323.0843, "EPHEMERIS_TYPE": 0, "CLASSIFICATION_TYPE": "U", "NORAD_CAT_ID": 66585, "ELEMENT_SET_NO": 999, "REV_AT_EPOCH": 609, "BSTAR": -0.070663, "MEAN_MOTION_DOT": -0.02023066, "MEAN_MOTION_DDOT": 0}, "tle": {"line1": "1 66585U 25268AE  25360.75003471 -.02023066  00000+0 -70663-1 0  9999", "line2": "2 66585  43.0006  39.3643 0001137 274.5647 323.0843 15.32131820  6094"}}, "geometry": {"type": "Point", "coordinates": [78.94328456170548, 31.372819642076262]}}, {"type": "Feature", "properties": {"norad_id": 66586, "name": "TJS-21", "group": "last-30-days", "lat": 60.32749719593804, "lon": -81.34975407553146, "alt_km": 35721.92639285657, "timestamp": "2025-12-26T23:26:40.919111+00:00", "meta": {"OBJECT_NAME": "TJS-21", "OBJECT_ID": "2025-269A", "EPOCH": "2025-12-18T16:58:10.473888", "MEAN_MOTION": 2.00580748, "ECCENTRICITY": 0.6806869, "INCLINATION": 63.2733, "RA_OF_ASC_NODE": 161.7218, "ARG_OF_PERICENTER": 269.7428, "MEAN_ANOMALY": 18.6663, "EPHEMERIS_TYPE": 0, "CLASSIFICATION_TYPE": "U", "NORAD_CAT_ID": 66586, "ELEMENT_SET_NO": 999, "REV_AT_EPOCH": 55, "BSTAR": -0.059507049, "MEAN_MOTION_DOT": 1.084e-05, "MEAN_MOTION_DDOT": 0}, "tle": {"line1": "1 66586U 25269A   25352.70706567  .00001084  00000+0 -59507-1 0  9990", "line2": "2 66586  63.2733 161.7218 6806869 269.7428  18.6663  2.00580748   558"}}, "geometry": {"type": "Point", "coordinates": [-81.34975407553146, 60.32749719593804]}}, {"type": "Feature", "properties": {"norad_id": 66588, "name": "STARLINK-36076", "group": "last-30-days", "lat": -32.70817414885137, "lon": -25.684716503817143, "alt_km": 446.3511941621391, "timestamp": "2025-12-26T23:26:40.919128+00:00", "meta": {"OBJECT_NAME": "STARLINK-36076", "OBJECT_ID": "2025-270A", "EPOCH": "2025-12-26T17:46:23.069856", "MEAN_MOTION": 15.40706304, "ECCENTRICITY": 0.0001005, "INCLINATION": 42.9985, "RA_OF_ASC_NODE": 112.1115, "ARG_OF_PERICENTER": 274.9025, "MEAN_ANOMALY": 85.1717, "EPHEMERIS_TYPE": 0, "CLASSIFICATION_TYPE": "U", "NORAD_CAT_ID": 66588, "ELEMENT_SET_NO": 999, "REV_AT_EPOCH": 650, "BSTAR": 0.000915, "MEAN_MOTION_DOT": 0.00038117, "MEAN_MOTION_DDOT": 0}, "tle": {"line1": "1 66588U 25270A   25360.74054479  .00038117  00000+0  91500-3 0  9992", "line2": "2 66588  42.9985 112.1115 0001005 274.9025  85.1717 15.40706304  6509"}}, "geometry": {"type": "Point", "coordinates": [-25.684716503817143, -32.70817414885137]}}, {"type": "Feature", "properties": {"norad_id": 66589, "name": "STARLINK-35447", "group": "last-30-days", "lat": -18.60874037929197, "lon": 89.32101651767246, "alt_km": 445.28477880397713, "timestamp": "2025-12-26T23:26:40.919139+00:00", "meta": {"OBJECT_NAME": "STARLINK-35447", "OBJECT_ID": "2025-270B", "EPOCH": "2025-12-25T14:53:33.760896", "MEAN_MOTION": 15.4069884, "ECCENTRICITY": 0.0001173, "INCLINATION": 43.0008, "RA_OF_ASC_NODE": 118.3206, "ARG_OF_PERICENTER": 257.0782, "MEAN_ANOMALY": 102.9943, "EPHEMERIS_TYPE": 0, "CLASSIFICATION_TYPE": "U", "NORAD_CAT_ID": 66589, "ELEMENT_SET_NO": 999, "REV_AT_EPOCH": 644, "BSTAR": 0.00080611, "MEAN_MOTION_DOT": 0.00033516, "MEAN_MOTION_DDOT": 0}, "tle": {"line1": "1 66589U 25270B   25359.62052964  .00033516  00000+0  80611-3 0  9994", "line2": "2 66589  43.0008 118.3206 0001173 257.0782 102.9943 15.40698840  6442"}}, "geometry": {"type": "Point", "coordinates": [89.32101651767246, -18.60874037929197]}}, {"type": "Feature", "properties": {"norad_id": 66590, "name": "STARLINK-35429", "group": "last-30-days", "lat": 35.9606181273224, "lon": 161.41568354691816, "alt_km": 438.5302428648138, "timestamp": "2025-12-26T23:26:40.919151+00:00", "meta": {"OBJECT_NAME": "STARLINK-35429", "OBJECT_ID": "2025-270C", "EPOCH": "2025-12-25T17:37:41.590560", "MEAN_MOTION": 15.40721997, "ECCENTRICITY": 0.0001639, "INCLINATION": 43.002, "RA_OF_ASC_NODE": 117.4547, "ARG_OF_PERICENTER": 273.6487, "MEAN_ANOMALY": 86.4182, "EPHEMERIS_TYPE": 0, "CLASSIFICATION_TYPE": "U", "NORAD_CAT_ID": 66590, "ELEMENT_SET_NO": 999, "REV_AT_EPOCH": 646, "BSTAR": 0.001733211, "MEAN_MOTION_DOT": 0.00072845, "MEAN_MOTION_DDOT": 0}, "tle": {"line1": "1 66590U 25270C   25359.73450915  .00072845  00000+0  17332-2 0  9993", "line2": "2 66590  43.0020 117.4547 0001639 273.6487  86.4182 15.40721997  6462"}}, "geometry": {"type": "Point", "coordinates": [161.41568354691816, 35.9606181273224]}}, {"type": "Feature", "properties": {"norad_id": 66591, "name": "STARLINK-36058", "group": "last-30-days", "lat": 22.295807096293995, "lon": -96.01404713836382, "alt_km": 441.71681730247747, "timestamp": "2025-12-26T23:26:40.919162+00:00", "meta": {"OBJECT_NAME": "STARLINK-36058", "OBJECT_ID": "2025-270D", "EPOCH": "2025-12-26T15:02:03.164064", "MEAN_MOTION": 15.40738813, "ECCENTRICITY": 0.0002694, "INCLINATION": 43.0054, "RA_OF_ASC_NODE": 112.1064, "ARG_OF_PERICENTER": 284.3087, "MEAN_ANOMALY": 75.747, "EPHEMERIS_TYPE": 0, "CLASSIFICATION_TYPE": "U", "NORAD_CAT_ID": 66591, "ELEMENT_SET_NO": 999, "REV_AT_EPOCH": 649, "BSTAR": 0.001161, "MEAN_MOTION_DOT": 0.0004857, "MEAN_MOTION_DDOT": 0}, "tle": {"line1": "1 66591U 25270D   25360.62642551  .00048570  00000+0  11610-2 0  9994", "line2": "2 66591  43.0054 112.1064 0002694 284.3087  75.7470 15.40738813  6492"}}, "geometry": {"type": "Point", "coordinates": [-96.01404713836382, 22.295807096293995]}}, {"type": "Feature", "properties": {"norad_id": 66592, "name": "STARLINK-36066", "group": "last-30-days", "lat": -41.76059718054213, "lon": 37.26609037442698, "alt_km": 445.85227348999706, "timestamp": "2025-12-26T23:26:40.919174+00:00", "meta": {"OBJECT_NAME": "STARLINK-36066", "OBJECT_ID": "2025-270E", "EPOCH": "2025-12-26T08:13:21.289728", "MEAN_MOTION": 15.40749213, "ECCENTRICITY": 0.0001723, "INCLINATION": 43.0012, "RA_OF_ASC_NODE": 114.282, "ARG_OF_PERICENTER": 268.5662, "MEAN_ANOMALY": 91.4997, "EPHEMERIS_TYPE": 0, "CLASSIFICATION_TYPE": "U", "NORAD_CAT_ID": 66592, "ELEMENT_SET_NO": 999, "REV_AT_EPOCH": 634, "BSTAR": 0.0013745, "MEAN_MOTION_DOT": 0.00057643, "MEAN_MOTION_DDOT": 0}, "tle": {"line1": "1 66592U 25270E   25360.34260752  .00057643  00000+0  13745-2 0  9995", "line2": "2 66592  43.0012 114.2820 0001723 268.5662  91.4997 15.40749213  6344"}}, "geometry": {"type": "Point", "coordinates": [37.26609037442698, -41.76059718054213]}}, {"type": "Feature", "properties": {"norad_id": 66593, "name": "STARLINK-36031", "group": "last-30-days", "lat": 6.218906258536371, "lon": 117.1303036894514, "alt_km": 441.6889115504773, "timestamp": "2025-12-26T23:26:40.919185+00:00", "meta": {"OBJECT_NAME": "STARLINK-36031", "OBJECT_ID": "2025-270F", "EPOCH": "2025-12-26T17:10:54.852960", "MEAN_MOTION": 15.40744951, "ECCENTRICITY": 0.0001766, "INCLINATION": 43.0007, "RA_OF_ASC_NODE": 111.9193, "ARG_OF_PERICENTER": 34.9432, "MEAN_ANOMALY": 325.154, "EPHEMERIS_TYPE": 0, "CLASSIFICATION_TYPE": "U", "NORAD_CAT_ID": 66593, "ELEMENT_SET_NO": 999, "REV_AT_EPOCH": 650, "BSTAR": 0.0012376, "MEAN_MOTION_DOT": 0.00051823, "MEAN_MOTION_DDOT": 0}, "tle": {"line1": "1 66593U 25270F   25360.71591265  .00051823  00000+0  12376-2 0  9996", "line2": "2 66593  43.0007 111.9193 0001766  34.9432 325.1540 15.40744951  6506"}}, "geometry": {"type": "Point", "coordinates": [117.1303036894514, 6.218906258536371]}}, {"type": "Feature", "properties": {"norad_id": 66594, "name": "STARLINK-36032", "group": "last-30-days", "lat": 40.19836065501654, "lon": -134.89477351444006, "alt_km": 439.277708084649, "timestamp": "2025-12-26T23:26:40.919198+00:00", "meta": {"OBJECT_NAME": "STARLINK-36032", "OBJECT_ID": "2025-270G", "EPOCH": "2025-12-26T15:11:43.630368", "MEAN_MOTION": 15.40675984, "ECCENTRICITY": 0.0002447, "INCLINATION": 42.9999, "RA_OF_ASC_NODE": 112.1553, "ARG_OF_PERICENTER": 282.7997, "MEAN_ANOMALY": 77.2586, "EPHEMERIS_TYPE": 0, "CLASSIFICATION_TYPE": "U", "NORAD_CAT_ID": 66594, "ELEMENT_SET_NO": 999, "REV_AT_EPOCH": 630, "BSTAR": 0.0012387, "MEAN_MOTION_DOT": 0.00051752, "MEAN_MOTION_DDOT": 0}, "tle": {"line1": "1 66594U 25270G   25360.63314387  .00051752  00000+0  12387-2 0  9999", "line2": "2 66594  42.9999 112.1553 0002447 282.7997  77.2586 15.40675984  6306"}}, "geometry": {"type": "Point", "coordinates": [-134.89477351444006, 40.19836065501654]}}]}